CCSDS_OMM_VERS = 2.0
CREATION_DATE  = 
ORIGINATOR     = 

OBJECT_NAME    = HXMT (HUIYAN)
OBJECT_ID      = 2017-034A
CENTER_NAME    = EARTH
REF_FRAME      = TEME
TIME_SYSTEM    = UTC
MEAN_ELEMENT_THEORY = SGP/SGP4

EPOCH          = 2026-03-06T21:09:13.262400
MEAN_MOTION    = 15.17415521
ECCENTRICITY   = .0032654
INCLINATION    = 43.0152
RA_OF_ASC_NODE = 32.2848
ARG_OF_PERICENTER = 218.8316
MEAN_ANOMALY   = 141.0185

EPHEMERIS_TYPE = 0
CLASSIFICATION_TYPE = U
NORAD_CAT_ID   = 42758
ELEMENT_SET_NO = 999
REV_AT_EPOCH   = 48211
BSTAR          = .38737E-3
MEAN_MOTION_DOT = .7761E-4
MEAN_MOTION_DDOT = 0

CCSDS_OMM_VERS = 2.0
CREATION_DATE  = 
ORIGINATOR     = 

OBJECT_NAME    = SAOCOM 1A
OBJECT_ID      = 2018-076A
CENTER_NAME    = EARTH
REF_FRAME      = TEME
TIME_SYSTEM    = UTC
MEAN_ELEMENT_THEORY = SGP/SGP4

EPOCH          = 2026-03-06T20:34:51.461184
MEAN_MOTION    = 14.82165074
ECCENTRICITY   = .000127
INCLINATION    = 97.8885
RA_OF_ASC_NODE = 254.0700
ARG_OF_PERICENTER = 81.6766
MEAN_ANOMALY   = 278.4591

EPHEMERIS_TYPE = 0
CLASSIFICATION_TYPE = U
NORAD_CAT_ID   = 43641
ELEMENT_SET_NO = 999
REV_AT_EPOCH   = 40094
BSTAR          = .60576E-4
MEAN_MOTION_DOT = .43E-5
MEAN_MOTION_DDOT = 0

CCSDS_OMM_VERS = 2.0
CREATION_DATE  = 
ORIGINATOR     = 

OBJECT_NAME    = H-2A R/B
OBJECT_ID      = 2018-084L
CENTER_NAME    = EARTH
REF_FRAME      = TEME
TIME_SYSTEM    = UTC
MEAN_ELEMENT_THEORY = SGP/SGP4

EPOCH          = 2026-03-06T13:14:24.040032
MEAN_MOTION    = 15.41182954
ECCENTRICITY   = .0025676
INCLINATION    = 98.8726
RA_OF_ASC_NODE = 282.2697
ARG_OF_PERICENTER = 35.8893
MEAN_ANOMALY   = 324.4068

EPHEMERIS_TYPE = 0
CLASSIFICATION_TYPE = U
NORAD_CAT_ID   = 43682
ELEMENT_SET_NO = 999
REV_AT_EPOCH   = 40529
BSTAR          = .61646636E-3
MEAN_MOTION_DOT = .2582E-3
MEAN_MOTION_DDOT = 0

CCSDS_OMM_VERS = 2.0
CREATION_DATE  = 
ORIGINATOR     = 

OBJECT_NAME    = SAOCOM 1B
OBJECT_ID      = 2020-059A
CENTER_NAME    = EARTH
REF_FRAME      = TEME
TIME_SYSTEM    = UTC
MEAN_ELEMENT_THEORY = SGP/SGP4

EPOCH          = 2026-03-06T19:42:35.436672
MEAN_MOTION    = 14.82172840
ECCENTRICITY   = .0001502
INCLINATION    = 97.8885
RA_OF_ASC_NODE = 253.1324
ARG_OF_PERICENTER = 82.0872
MEAN_ANOMALY   = 278.0511

EPHEMERIS_TYPE = 0
CLASSIFICATION_TYPE = U
NORAD_CAT_ID   = 46265
ELEMENT_SET_NO = 999
REV_AT_EPOCH   = 29832
BSTAR          = .18258E-3
MEAN_MOTION_DOT = .1402E-4
MEAN_MOTION_DDOT = 0

CCSDS_OMM_VERS = 2.0
CREATION_DATE  = 
ORIGINATOR     = 

OBJECT_NAME    = CSS (TIANHE)
OBJECT_ID      = 2021-035A
CENTER_NAME    = EARTH
REF_FRAME      = TEME
TIME_SYSTEM    = UTC
MEAN_ELEMENT_THEORY = SGP/SGP4

EPOCH          = 2026-03-06T20:03:32.076288
MEAN_MOTION    = 15.60495557
ECCENTRICITY   = .000695
INCLINATION    = 41.4663
RA_OF_ASC_NODE = 225.5243
ARG_OF_PERICENTER = 255.9346
MEAN_ANOMALY   = 104.0720

EPHEMERIS_TYPE = 0
CLASSIFICATION_TYPE = U
NORAD_CAT_ID   = 48274
ELEMENT_SET_NO = 999
REV_AT_EPOCH   = 27716
BSTAR          = .30829E-3
MEAN_MOTION_DOT = .25906E-3
MEAN_MOTION_DDOT = 0

CCSDS_OMM_VERS = 2.0
CREATION_DATE  = 
ORIGINATOR     = 

OBJECT_NAME    = COSMOS 2550
OBJECT_ID      = 2021-056A
CENTER_NAME    = EARTH
REF_FRAME      = TEME
TIME_SYSTEM    = UTC
MEAN_ELEMENT_THEORY = SGP/SGP4

EPOCH          = 2026-03-06T21:48:59.913792
MEAN_MOTION    = 15.33835967
ECCENTRICITY   = .0008313
INCLINATION    = 67.1446
RA_OF_ASC_NODE = 49.3427
ARG_OF_PERICENTER = 268.6131
MEAN_ANOMALY   = 91.4071

EPHEMERIS_TYPE = 0
CLASSIFICATION_TYPE = U
NORAD_CAT_ID   = 48865
ELEMENT_SET_NO = 999
REV_AT_EPOCH   = 26303
BSTAR          = -.91481E-7
MEAN_MOTION_DOT = -.195E-5
MEAN_MOTION_DDOT = 0

CCSDS_OMM_VERS = 2.0
CREATION_DATE  = 
ORIGINATOR     = 

OBJECT_NAME    = CZ-2C R/B
OBJECT_ID      = 2022-058K
CENTER_NAME    = EARTH
REF_FRAME      = TEME
TIME_SYSTEM    = UTC
MEAN_ELEMENT_THEORY = SGP/SGP4

EPOCH          = 2026-03-06T02:30:32.770080
MEAN_MOTION    = 15.53925606
ECCENTRICITY   = .00422447
INCLINATION    = 50.1901
RA_OF_ASC_NODE = 336.7280
ARG_OF_PERICENTER = 185.5572
MEAN_ANOMALY   = 174.4935

EPHEMERIS_TYPE = 0
CLASSIFICATION_TYPE = U
NORAD_CAT_ID   = 52794
ELEMENT_SET_NO = 999
REV_AT_EPOCH   = 20957
BSTAR          = .54511149E-3
MEAN_MOTION_DOT = .36957E-3
MEAN_MOTION_DDOT = 0

CCSDS_OMM_VERS = 2.0
CREATION_DATE  = 
ORIGINATOR     = 

OBJECT_NAME    = CZ-2C R/B
OBJECT_ID      = 2022-132E
CENTER_NAME    = EARTH
REF_FRAME      = TEME
TIME_SYSTEM    = UTC
MEAN_ELEMENT_THEORY = SGP/SGP4

EPOCH          = 2026-03-06T02:29:20.588928
MEAN_MOTION    = 15.61488036
ECCENTRICITY   = .00208174
INCLINATION    = 97.2964
RA_OF_ASC_NODE = 68.3129
ARG_OF_PERICENTER = 103.1705
MEAN_ANOMALY   = 257.1877

EPHEMERIS_TYPE = 0
CLASSIFICATION_TYPE = U
NORAD_CAT_ID   = 54039
ELEMENT_SET_NO = 999
REV_AT_EPOCH   = 18981
BSTAR          = .52472889E-3
MEAN_MOTION_DOT = .45399E-3
MEAN_MOTION_DDOT = 0

CCSDS_OMM_VERS = 2.0
CREATION_DATE  = 
ORIGINATOR     = 

OBJECT_NAME    = GSLV R/B
OBJECT_ID      = 2022-138AN
CENTER_NAME    = EARTH
REF_FRAME      = TEME
TIME_SYSTEM    = UTC
MEAN_ELEMENT_THEORY = SGP/SGP4

EPOCH          = 2026-03-06T10:40:36.650496
MEAN_MOTION    = 14.96748090
ECCENTRICITY   = .00226055
INCLINATION    = 87.3884
RA_OF_ASC_NODE = 167.4484
ARG_OF_PERICENTER = 157.9205
MEAN_ANOMALY   = 202.3006

EPHEMERIS_TYPE = 0
CLASSIFICATION_TYPE = U
NORAD_CAT_ID   = 54149
ELEMENT_SET_NO = 999
REV_AT_EPOCH   = 18344
BSTAR          = .35960126E-3
MEAN_MOTION_DOT = .4158E-4
MEAN_MOTION_DDOT = 0

CCSDS_OMM_VERS = 2.0
CREATION_DATE  = 
ORIGINATOR     = 

OBJECT_NAME    = XRISM
OBJECT_ID      = 2023-137A
CENTER_NAME    = EARTH
REF_FRAME      = TEME
TIME_SYSTEM    = UTC
MEAN_ELEMENT_THEORY = SGP/SGP4

EPOCH          = 2026-03-06T19:13:25.186944
MEAN_MOTION    = 15.11461410
ECCENTRICITY   = .0008057
INCLINATION    = 31.0025
RA_OF_ASC_NODE = 302.3476
ARG_OF_PERICENTER = 8.9885
MEAN_ANOMALY   = 351.0896

EPHEMERIS_TYPE = 0
CLASSIFICATION_TYPE = U
NORAD_CAT_ID   = 57800
ELEMENT_SET_NO = 999
REV_AT_EPOCH   = 13735
BSTAR          = .42972E-3
MEAN_MOTION_DOT = .7553E-4
MEAN_MOTION_DDOT = 0

CCSDS_OMM_VERS = 2.0
CREATION_DATE  = 
ORIGINATOR     = 

OBJECT_NAME    = ACS3
OBJECT_ID      = 2024-077B
CENTER_NAME    = EARTH
REF_FRAME      = TEME
TIME_SYSTEM    = UTC
MEAN_ELEMENT_THEORY = SGP/SGP4

EPOCH          = 2026-03-06T09:38:20.244480
MEAN_MOTION    = 13.89441729
ECCENTRICITY   = .00572699
INCLINATION    = 97.2094
RA_OF_ASC_NODE = 7.2527
ARG_OF_PERICENTER = 85.3402
MEAN_ANOMALY   = 275.4299

EPHEMERIS_TYPE = 0
CLASSIFICATION_TYPE = U
NORAD_CAT_ID   = 59588
ELEMENT_SET_NO = 999
REV_AT_EPOCH   = 9374
BSTAR          = .22567773E-1
MEAN_MOTION_DOT = .27985E-3
MEAN_MOTION_DDOT = 0

CCSDS_OMM_VERS = 2.0
CREATION_DATE  = 
ORIGINATOR     = 

OBJECT_NAME    = SZ-21 MODULE
OBJECT_ID      = 2025-246C
CENTER_NAME    = EARTH
REF_FRAME      = TEME
TIME_SYSTEM    = UTC
MEAN_ELEMENT_THEORY = SGP/SGP4

EPOCH          = 2026-03-06T12:11:03.500160
MEAN_MOTION    = 15.68252686
ECCENTRICITY   = .00014339
INCLINATION    = 41.4735
RA_OF_ASC_NODE = 222.9439
ARG_OF_PERICENTER = 292.6372
MEAN_ANOMALY   = 67.4317

EPHEMERIS_TYPE = 0
CLASSIFICATION_TYPE = U
NORAD_CAT_ID   = 66515
ELEMENT_SET_NO = 999
REV_AT_EPOCH   = 1757
BSTAR          = .36494457E-3
MEAN_MOTION_DOT = .4195E-3
MEAN_MOTION_DDOT = 0

